{"type": "FeatureCollection", "name": "gwangju_jeonnam_sig_approx_risk_internal_lines", "crs": {"type": "name", "properties": {"name": "EPSG:4326"}}, "metadata": {"description": "Internal shared district boundaries only (outer boundary removed).", "sourceSql": "api/.local-seed/data-h2.full.sql", "regionNames": ["광주", "전남"], "featureCount": 3, "method": "voronoi-coverage-internal-lines"}, "features": [{"type": "Feature", "properties": {"regionNm": "광주", "lineType": "internal-boundary"}, "geometry": {"type": "MultiLineString", "coordinates": [[[126.8232368292715, 35.12809250557193], [126.81643582699085, 35.12616257828181]], [[126.81643582699085, 35.12616257828181], [126.81956713896476, 35.118060405889445]], [[126.81956713896476, 35.118060405889445], [126.81426344366105, 35.116763163170816]], [[126.81426344366105, 35.116763163170816], [126.81289168326774, 35.117259233967125]], [[126.81289168326774, 35.117259233967125], [126.79917772285522, 35.11355297862671]], [[126.806112885106, 35.1052150452826], [126.80631482818204, 35.10497222362697], [126.80205935721494, 35.0987130494501]], [[126.80205935721494, 35.0987130494501], [126.79416621704979, 35.09230965932868]], [[126.79416621704979, 35.09230965932868], [126.7953303676557, 35.08369738635885]], [[126.7953303676557, 35.08369738635885], [126.7852396671902, 35.07645340383906]], [[126.7852396671902, 35.07645340383906], [126.782672086778, 35.07648219504226]], [[126.782672086778, 35.07648219504226], [126.77764720154184, 35.07328312635879]], [[126.77764720154184, 35.07328312635879], [126.77579933208854, 35.06684450597706]], [[126.77579933208854, 35.06684450597706], [126.76449081800202, 35.06579077965445]], [[126.76449081800202, 35.06579077965445], [126.7557752940523, 35.06662543464224]], [[126.82983654552076, 35.240652544625], [126.83110955632556, 35.2285381508861]], [[126.83110955632556, 35.2285381508861], [126.83788838911259, 35.22818069154683]], [[126.83788838911259, 35.22818069154683], [126.83847707894805, 35.22739664542712]], [[126.83847707894805, 35.22739664542712], [126.8379675680893, 35.22373871630416]], [[126.8379675680893, 35.22373871630416], [126.84414475520902, 35.224436796482216]], [[126.84414475520902, 35.224436796482216], [126.84457578915925, 35.2236751705521]], [[126.84457578915925, 35.2236751705521], [126.8502122552269, 35.222462755496785]], [[126.8502122552269, 35.222462755496785], [126.85321547499578, 35.22437295252249]], [[126.85321547499578, 35.22437295252249], [126.85616359701756, 35.22118867980969]], [[126.85616359701756, 35.22118867980969], [126.85015963888694, 35.21885154139316]], [[126.85015963888694, 35.21885154139316], [126.8508116118906, 35.21752051911278]], [[126.8508116118906, 35.21752051911278], [126.85874029403979, 35.21625999439591]], [[126.85874029403979, 35.21625999439591], [126.8597314456335, 35.21182868763522]], [[126.8597314456335, 35.21182868763522], [126.85903522679307, 35.21038015856782]], [[126.85903522679307, 35.21038015856782], [126.85349953740486, 35.20820300440346]], [[126.85349953740486, 35.20820300440346], [126.85290843591524, 35.20190820260867]], [[126.85290843591524, 35.20190820260867], [126.85412017579223, 35.19922159915394]], [[126.85412017579223, 35.19922159915394], [126.85805001129948, 35.19519062397239]], [[126.85805001129948, 35.19519062397239], [126.8606999883315, 35.193792660355555]], [[126.8606999883315, 35.193792660355555], [126.86052797086782, 35.18935381665414]], [[126.86052797086782, 35.18935381665414], [126.85977252500695, 35.18812746881308]], [[126.85977252500695, 35.18812746881308], [126.8599334857063, 35.18329116421446]], [[126.8599334857063, 35.18329116421446], [126.85350660725493, 35.1818939701598]], [[126.85350660725493, 35.1818939701598], [126.85151098151589, 35.180291768573404]], [[126.85151098151589, 35.180291768573404], [126.84994514820573, 35.18054999276896]], [[126.84994514820573, 35.18054999276896], [126.8446957133739, 35.17925570432118]], [[126.8446957133739, 35.17925570432118], [126.84275978321656, 35.17938369709306]], [[126.84275978321656, 35.17938369709306], [126.83858061884455, 35.17663624215719]], [[126.83858061884455, 35.17663624215719], [126.83912702343807, 35.17224528067088]], [[126.83912702343807, 35.17224528067088], [126.82964222662018, 35.17004291531704]], [[126.82964222662018, 35.17004291531704], [126.8287776896125, 35.16918697924635]], [[126.8287776896125, 35.16918697924635], [126.8236017629031, 35.167692424609314]], [[126.8236017629031, 35.167692424609314], [126.82234695908345, 35.16546573982468]], [[126.82234695908345, 35.16546573982468], [126.82536447806334, 35.1560324302021]], [[126.82536447806334, 35.1560324302021], [126.82702345905028, 35.155542405073874]], [[126.82702345905028, 35.155542405073874], [126.82989142829636, 35.14955228638614]], [[126.82989142829636, 35.14955228638614], [126.82937373746051, 35.14659598388871]], [[126.82937373746051, 35.14659598388871], [126.83038585871778, 35.14480423133808]], [[126.83038585871778, 35.14480423133808], [126.8280707167742, 35.13849371238331]], [[126.8280707167742, 35.13849371238331], [126.81962650589533, 35.13796473411192]], [[126.80205935721494, 35.0987130494501], [126.81284386304623, 35.08895153799161]], [[126.81284386304623, 35.08895153799161], [126.81363905260119, 35.09320391996459]], [[126.81363905260119, 35.09320391996459], [126.82037877294417, 35.09337162247595]], [[126.82037877294417, 35.09337162247595], [126.82165757874503, 35.092919471042386]], [[126.82165757874503, 35.092919471042386], [126.83137012513767, 35.094085192880314]], [[126.83137012513767, 35.094085192880314], [126.83254912911073, 35.09883109398659]], [[126.83254912911073, 35.09883109398659], [126.83650537073945, 35.09948888493142]], [[126.83650537073945, 35.09948888493142], [126.84189026128391, 35.1013956283422]], [[126.84189026128391, 35.1013956283422], [126.84261137325144, 35.10561074550457]], [[126.84261137325144, 35.10561074550457], [126.8459148596911, 35.10700197881812]], [[126.8459148596911, 35.10700197881812], [126.85168917397323, 35.10822204412818]], [[126.85168917397323, 35.10822204412818], [126.85979842606277, 35.106410043669]], [[126.85979842606277, 35.106410043669], [126.86074354553892, 35.108248904557975]], [[126.86074354553892, 35.108248904557975], [126.86985967657019, 35.111552531029226]], [[126.86985967657019, 35.111552531029226], [126.86894355629926, 35.113580933443444]], [[126.86894355629926, 35.113580933443444], [126.874974811408, 35.11984706558489]], [[126.874974811408, 35.11984706558489], [126.87664327917696, 35.11894738627422]], [[126.87664327917696, 35.11894738627422], [126.88742477887982, 35.116498139556235]], [[126.88742477887982, 35.116498139556235], [126.88967971449486, 35.11967762445453]], [[126.88967971449486, 35.11967762445453], [126.88985319893341, 35.125406326142844]], [[126.88985319893341, 35.125406326142844], [126.88302625345769, 35.13323459545214]], [[126.88302625345769, 35.13323459545214], [126.88402629300347, 35.13444163329075]], [[126.88402629300347, 35.13444163329075], [126.88362406869395, 35.13842448405674]], [[126.88362406869395, 35.13842448405674], [126.8848279374144, 35.13896063995275]], [[126.8848279374144, 35.13896063995275], [126.88890748808423, 35.14398811964318]], [[126.88890748808423, 35.14398811964318], [126.88494655405627, 35.146088382563214]], [[126.88494655405627, 35.146088382563214], [126.88948246501525, 35.14892525067231]], [[126.88948246501525, 35.14892525067231], [126.89087526857682, 35.14796637407557]], [[126.89087526857682, 35.14796637407557], [126.8946279987753, 35.14932029404281]], [[126.8946279987753, 35.14932029404281], [126.89308099178263, 35.152234003808466]], [[126.89308099178263, 35.152234003808466], [126.89754542483347, 35.1537594651656]], [[126.89754542483347, 35.1537594651656], [126.9033057704789, 35.15191764831685]], [[126.9033057704789, 35.15191764831685], [126.90167876869499, 35.14947202283489]], [[126.90167876869499, 35.14947202283489], [126.90564004875893, 35.147014599912445]], [[126.90564004875893, 35.147014599912445], [126.90960553376415, 35.14834805911731]], [[126.90960553376415, 35.14834805911731], [126.9211230690785, 35.138045663807816]], [[126.9211230690785, 35.138045663807816], [126.92545715901453, 35.13242857272259]], [[126.92545715901453, 35.13242857272259], [126.92666158678183, 35.13224774262102]], [[126.92666158678183, 35.13224774262102], [126.92591179703544, 35.126122330056496]], [[126.92591179703544, 35.126122330056496], [126.9284402275211, 35.12456911952122]], [[126.9284402275211, 35.12456911952122], [126.92814495742094, 35.12202299197297]], [[126.92814495742094, 35.12202299197297], [126.92556228611586, 35.118882058011785]], [[126.92556228611586, 35.118882058011785], [126.92051233993942, 35.119958356115156]], [[126.92051233993942, 35.119958356115156], [126.91934130834801, 35.11961311681854]], [[126.91934130834801, 35.11961311681854], [126.91474148588921, 35.114351938279185]], [[126.91474148588921, 35.114351938279185], [126.91467499357046, 35.11183279961695]], [[126.91467499357046, 35.11183279961695], [126.9178141320989, 35.107394217209716]], [[126.9178141320989, 35.107394217209716], [126.91731048498319, 35.101570860128966]], [[126.91731048498319, 35.101570860128966], [126.91928869168541, 35.097220546888686]], [[126.91928869168541, 35.097220546888686], [126.91363736249937, 35.08697859804555]], [[126.91363736249937, 35.08697859804555], [126.91283308199839, 35.081402179961856]], [[126.92454809186731, 35.16163860067384], [126.92943440321947, 35.16030437390554]], [[126.92943440321947, 35.16030437390554], [126.93570234020174, 35.160501624247594]], [[126.93570234020174, 35.160501624247594], [126.94622858439551, 35.15931481018526]], [[126.94622858439551, 35.15931481018526], [126.94902194990257, 35.15781622153728]], [[126.94902194990257, 35.15781622153728], [126.95459885132365, 35.15160949502589]], [[126.95459885132365, 35.15160949502589], [126.95726139415194, 35.15077534929767]], [[126.95726139415194, 35.15077534929767], [126.95952271503789, 35.14035095940943]], [[126.95952271503789, 35.14035095940943], [126.96999578650504, 35.13912831172029]], [[126.96999578650504, 35.13912831172029], [126.97483488965727, 35.1397422167737]], [[126.97483488965727, 35.1397422167737], [126.98544840948031, 35.130354235356144]], [[126.98544840948031, 35.130354235356144], [126.99218674935439, 35.126110560842676]], [[126.90960553376415, 35.14834805911731], [126.91006075798526, 35.15084383720021]], [[126.91006075798526, 35.15084383720021], [126.90864498572687, 35.153032182565276]], [[126.90864498572687, 35.153032182565276], [126.91234421519582, 35.155546552743516]], [[126.91234421519582, 35.155546552743516], [126.9106260989986, 35.157760046008704]], [[126.9106260989986, 35.157760046008704], [126.91300411115155, 35.16015077786554]], [[126.91300411115155, 35.16015077786554], [126.91510979947266, 35.15990553063472]], [[126.91510979947266, 35.15990553063472], [126.91711375438693, 35.16225917025334]], [[126.91711375438693, 35.16225917025334], [126.91503130313771, 35.16448514038851]], [[126.91503130313771, 35.16448514038851], [126.9202386017165, 35.16642163436926]], [[126.9202386017165, 35.16642163436926], [126.92087837038385, 35.167295391010846]], [[126.92087837038385, 35.167295391010846], [126.92522820988992, 35.16414586724743]], [[126.92522820988992, 35.16414586724743], [126.92454809186731, 35.16163860067384]], [[126.90864498572687, 35.153032182565276], [126.90721677977957, 35.153626767471756]], [[126.90721677977957, 35.153626767471756], [126.90396009313723, 35.15268374633556]], [[126.90396009313723, 35.15268374633556], [126.90131413999349, 35.15768119419626]], [[126.90131413999349, 35.15768119419626], [126.89844853595473, 35.157301735074896]], [[126.89844853595473, 35.157301735074896], [126.89255764719843, 35.16329563521948]], [[126.89255764719843, 35.16329563521948], [126.88998715516477, 35.163574558848666]], [[126.88998715516477, 35.163574558848666], [126.88321257688155, 35.169776081081174]], [[126.88321257688155, 35.169776081081174], [126.87783222500019, 35.17000615676555]], [[126.87783222500019, 35.17000615676555], [126.87635958382266, 35.172605881399285]], [[126.87635958382266, 35.172605881399285], [126.86937062120734, 35.171940811287215]], [[126.86937062120734, 35.171940811287215], [126.86868910246106, 35.173285440641415]], [[126.86868910246106, 35.173285440641415], [126.85997590894948, 35.17178343877469]], [[126.85997590894948, 35.17178343877469], [126.85969116245042, 35.17124462957684]], [[126.85969116245042, 35.17124462957684], [126.85237295679298, 35.17380053602986]], [[126.85237295679298, 35.17380053602986], [126.84668811586249, 35.17447288336586]], [[126.84668811586249, 35.17447288336586], [126.84248438470233, 35.17110422793776]], [[126.84248438470233, 35.17110422793776], [126.83912702343807, 35.17224528067088]], [[126.80205935721494, 35.0987130494501], [126.80611288509483, 35.105215045282016]]]}}, {"type": "Feature", "properties": {"regionNm": "광주", "lineType": "outer-boundary"}, "geometry": {"type": "MultiLineString", "coordinates": [[[126.9845607748257, 35.11764951771724], [126.9766327578402, 35.08942081716075], [126.9548876892785, 35.067064498437006], [126.94625341429234, 35.06511969726424], [126.93253695163112, 35.068171702047614], [126.92061265731529, 35.08064377639963], [126.91283308199709, 35.081402179952896], [126.90342630674502, 35.08231852797631], [126.87804764362107, 35.06766174404028], [126.84568472269454, 35.061083544516656], [126.82489520151553, 35.04572802722648], [126.81197956423082, 35.04329225737968], [126.7598287089815, 35.047339275510495], [126.75434212993062, 35.05530595323341], [126.7557752940414, 35.06662543464329], [126.75644585819204, 35.07192065459443], [126.7432730584308, 35.08818193730807], [126.72397042630483, 35.09753469432125], [126.69767144093511, 35.09969170110011], [126.67754314712589, 35.09501731085725], [126.6661510956003, 35.098718866790406], [126.63787920438914, 35.144663300631876], [126.64559534524415, 35.167504240136424], [126.64582389382154, 35.19177718884634], [126.64942183419821, 35.19817619284413], [126.6809303978331, 35.2200801341261], [126.69278162037273, 35.220931126283304], [126.71336353881144, 35.231283140786275], [126.72101888418983, 35.25009858844153], [126.74782671232573, 35.262846877004186], [126.75862386129312, 35.258247606163806], [126.77086352955172, 35.23627529265451], [126.8016159858645, 35.231868489616815], [126.8298365455198, 35.240652544634344], [126.844531936947, 35.24522334067175], [126.86919715049879, 35.25762224358243], [126.91743190718665, 35.26416503015342], [126.93548788779472, 35.26046061027369], [126.95836669349025, 35.23263479038586], [126.96753459292148, 35.19636575645599], [126.98595119360468, 35.192244228936545], [127.00690629681095, 35.19386880738408], [127.02392383685883, 35.18390081240888], [127.0280902470177, 35.17640082114301], [127.02504362593938, 35.16867955259316], [127.00596752528801, 35.1557372127217], [127.0037540313306, 35.13894021959058], [126.99218674936309, 35.12611056083719], [126.9845607748257, 35.11764951771724]], [[126.79917772284428, 35.113552978623744], [126.80611288509982, 35.10521504529003], [126.80627569097716, 35.10547616698484], [126.79917772284428, 35.113552978623744]], [[126.8218993198322, 35.130479162965216], [126.8232368292819, 35.12809250557489], [126.81962650588414, 35.1379647341112], [126.8218993198322, 35.130479162965216]]]}}, {"type": "Feature", "properties": {"regionNm": "전남", "lineType": "internal-boundary"}, "geometry": {"type": "MultiLineString", "coordinates": [[[127.22542660273157, 35.0594459805522], [127.22298958399402, 35.06699822809481]], [[127.22298958399402, 35.06699822809481], [127.22233870663618, 35.07317834986239]], [[127.22233870663618, 35.07317834986239], [127.20959060962952, 35.09766915051213]], [[127.20959060962952, 35.09766915051213], [127.20547626003007, 35.1194828319983]], [[127.20547626003007, 35.1194828319983], [127.20560338236737, 35.126255542311334]], [[127.20560338236737, 35.126255542311334], [127.19502023103499, 35.15110687004673]], [[127.19502023103499, 35.15110687004673], [127.19177696659793, 35.15348577103607]], [[127.19177696659793, 35.15348577103607], [127.18776717317192, 35.1586211688348]], [[127.18776717317192, 35.1586211688348], [127.1953598649914, 35.16806678264437]], [[127.1953598649914, 35.16806678264437], [127.1922259835663, 35.188343480958196]], [[127.1922259835663, 35.188343480958196], [127.1925583115125, 35.193833918354684]], [[127.1925583115125, 35.193833918354684], [127.1947867417337, 35.19826539922616]], [[127.1947867417337, 35.19826539922616], [127.19715390322828, 35.20966605469298]], [[127.19715390322828, 35.20966605469298], [127.18168801415175, 35.21698564549825]], [[127.16909920418347, 35.208139037579556], [127.16842340591764, 35.20429982117597]], [[127.16842340591764, 35.20429982117597], [127.15797941710085, 35.19817091842236]], [[127.15797941710085, 35.19817091842236], [127.15614006821049, 35.19830390481713]], [[127.15614006821049, 35.19830390481713], [127.1470377960106, 35.190642167915776]], [[127.1470377960106, 35.190642167915776], [127.14045739655437, 35.195600980609434]], [[127.14045739655437, 35.195600980609434], [127.1331560110998, 35.19490778416944]], [[127.1331560110998, 35.19490778416944], [127.12932878327524, 35.19518139459766]], [[127.12932878327524, 35.19518139459766], [127.1257255982642, 35.19821599312446]], [[127.1257255982642, 35.19821599312446], [127.11454055949183, 35.1995520118768]], [[127.11454055949183, 35.1995520118768], [127.11228912732409, 35.20076277334227]], [[127.11228912732409, 35.20076277334227], [127.10892508181955, 35.20142332371998]], [[127.10892508181955, 35.20142332371998], [127.10025936135466, 35.208308511413364]], [[127.10025936135466, 35.208308511413364], [127.09917064617272, 35.2214323479699]], [[127.09917064617272, 35.2214323479699], [127.10099292272498, 35.2236841714778]], [[127.10099292272498, 35.2236841714778], [127.10200448384523, 35.22855972368721]], [[127.10200448384523, 35.22855972368721], [127.0885052317111, 35.23554973301402]], [[127.0885052317111, 35.23554973301402], [127.08854514293955, 35.240221942312886]], [[127.08854514293955, 35.240221942312886], [127.08991235592978, 35.24447723153119]], [[127.08991235592978, 35.24447723153119], [127.08933395975681, 35.248553392114324]], [[127.08933395975681, 35.248553392114324], [127.08743521334944, 35.25208501254892]], [[127.08743521334944, 35.25208501254892], [127.09476097638779, 35.25901118527474]], [[127.09476097638779, 35.25901118527474], [127.09594356768804, 35.263712070397766]], [[127.09594356768804, 35.263712070397766], [127.09913223951725, 35.26553493205679]], [[127.09913223951725, 35.26553493205679], [127.09908622870554, 35.26966944100074]], [[127.09908622870554, 35.26966944100074], [127.09106759934582, 35.27182456243565]], [[127.09106759934582, 35.27182456243565], [127.09056130702318, 35.275305673219314]], [[127.09056130702318, 35.275305673219314], [127.0920777562468, 35.27958122690844]], [[127.0920777562468, 35.27958122690844], [127.08976042398626, 35.28305166847389]], [[127.08976042398626, 35.28305166847389], [127.09107006490476, 35.28497008486882]], [[127.09107006490476, 35.28497008486882], [127.09144027344048, 35.29058258696075]], [[127.09144027344048, 35.29058258696075], [127.09548655243321, 35.295225194815494]], [[127.09548655243321, 35.295225194815494], [127.09323709327779, 35.30567692260983]], [[127.09323709327779, 35.30567692260983], [127.10805343662894, 35.32593121990072]], [[127.10805343662894, 35.32593121990072], [127.11052343046097, 35.33285512200804]], [[127.11052343046097, 35.33285512200804], [127.11642091667237, 35.337925701518635]], [[127.11642091667237, 35.337925701518635], [127.11915111543748, 35.34725094919901]], [[126.89440975089545, 35.04135513071013], [126.88949075605167, 35.03093655268982]], [[126.88949075605167, 35.03093655268982], [126.89092979041318, 35.02633273944116]], [[126.89092979041318, 35.02633273944116], [126.88593022878456, 35.02061602154329]], [[126.88593022878456, 35.02061602154329], [126.87281230217312, 35.02008619192592]], [[126.87281230217312, 35.02008619192592], [126.8700922540063, 35.016779812678564]], [[126.8700922540063, 35.016779812678564], [126.86894887426587, 35.013962636048355]], [[126.86894887426587, 35.013962636048355], [126.87494566784295, 35.00965645115154]], [[126.87494566784295, 35.00965645115154], [126.87701246308823, 35.00609546942947]], [[126.87701246308823, 35.00609546942947], [126.88396945810948, 35.00605707106479]], [[126.88396945810948, 35.00605707106479], [126.88758539519053, 34.99911721462472]], [[126.88758539519053, 34.99911721462472], [126.8902254674989, 34.99868209890218]], [[126.8902254674989, 34.99868209890218], [126.89200430770913, 34.99739596512716]], [[126.89200430770913, 34.99739596512716], [126.89240855334693, 34.99551162127799]], [[126.89240855334693, 34.99551162127799], [126.89065828975922, 34.9921252105524]], [[126.89065828975922, 34.9921252105524], [126.89572241883945, 34.98729328389134]], [[126.89572241883945, 34.98729328389134], [126.89159572295127, 34.984233591923825]], [[126.89159572295127, 34.984233591923825], [126.88542498407107, 34.981366980191645]], [[126.88542498407107, 34.981366980191645], [126.88702035143149, 34.97945881214251]], [[126.88702035143149, 34.97945881214251], [126.88122988600445, 34.974583105553684]], [[126.88122988600445, 34.974583105553684], [126.87931982932206, 34.97372587448081]], [[126.87931982932206, 34.97372587448081], [126.8795070212655, 34.968079606441876]], [[126.8795070212655, 34.968079606441876], [126.8761409536382, 34.96407042722687]], [[126.8761409536382, 34.96407042722687], [126.88257285369812, 34.96047217609374]], [[126.88257285369812, 34.96047217609374], [126.88062119194929, 34.952347398680175]], [[126.88062119194929, 34.952347398680175], [126.88163060780347, 34.95062364665822]], [[126.88163060780347, 34.95062364665822], [126.88132657607137, 34.945534693765026]], [[126.88132657607137, 34.945534693765026], [126.87764897113775, 34.94456027880691]], [[126.87764897113775, 34.94456027880691], [126.86751001779928, 34.94014302492628]], [[126.86751001779928, 34.94014302492628], [126.86162070168656, 34.93905814957025]], [[126.86162070168656, 34.93905814957025], [126.86474282815786, 34.933643991389005]], [[126.86474282815786, 34.933643991389005], [126.8738446511409, 34.929181888616775]], [[126.8738446511409, 34.929181888616775], [126.87439873043054, 34.925617353488754]], [[126.87439873043054, 34.925617353488754], [126.87259102589118, 34.92378184181424]], [[126.87259102589118, 34.92378184181424], [126.86430009134382, 34.92099891345548]], [[126.86430009134382, 34.92099891345548], [126.86308893218353, 34.917287477983876]], [[126.86308893218353, 34.917287477983876], [126.86433005776526, 34.9151241791645]], [[126.86433005776526, 34.9151241791645], [126.87355906325553, 34.91481354534126]], [[126.87355906325553, 34.91481354534126], [126.87491450913002, 34.91181089469478]], [[126.87491450913002, 34.91181089469478], [126.8745615266133, 34.91110152504003]], [[126.8745615266133, 34.91110152504003], [126.86446669551499, 34.90421090542838]], [[126.86446669551499, 34.90421090542838], [126.86414088670863, 34.902720748846555]], [[126.86414088670863, 34.902720748846555], [126.8688509925298, 34.90176041225436]], [[126.8688509925298, 34.90176041225436], [126.87471946197267, 34.89235246234594]], [[126.87471946197267, 34.89235246234594], [126.86618062638915, 34.89155269561926]], [[126.86618062638915, 34.89155269561926], [126.8658381476842, 34.88671143890751]], [[126.8658381476842, 34.88671143890751], [126.86146559188353, 34.88768178270771]], [[126.86146559188353, 34.88768178270771], [126.85579432078299, 34.887712009504654]], [[126.85579432078299, 34.887712009504654], [126.85454920696533, 34.890064200263836]], [[126.85454920696533, 34.890064200263836], [126.84565610752209, 34.884287839585014]], [[126.84565610752209, 34.884287839585014], [126.84851251307207, 34.879240096024674]], [[126.84851251307207, 34.879240096024674], [126.83181886629357, 34.882826460021604]], [[126.83181886629357, 34.882826460021604], [126.83040412095932, 34.883692731995076]], [[126.83040412095932, 34.883692731995076], [126.83075180438598, 34.880034278184986]], [[126.83075180438598, 34.880034278184986], [126.82422945001798, 34.865744747464305]], [[126.49511247195053, 34.959271955251126], [126.51189364362325, 34.963962876637936]], [[126.51189364362325, 34.963962876637936], [126.51899582725122, 34.966662374891385]], [[126.51899582725122, 34.966662374891385], [126.5355106565517, 34.969760720069516]], [[126.5355106565517, 34.969760720069516], [126.54062703750436, 34.974599579402586]], [[126.54062703750436, 34.974599579402586], [126.54233392205647, 34.97857421305445]], [[126.54233392205647, 34.97857421305445], [126.55129150367644, 34.982453203884035]], [[126.55129150367644, 34.982453203884035], [126.55335982352308, 34.985678123511725]], [[126.55335982352308, 34.985678123511725], [126.55949270222247, 34.98940595663379]], [[126.55949270222247, 34.98940595663379], [126.56482624490847, 34.98566934740268]], [[126.56482624490847, 34.98566934740268], [126.56548324101182, 34.98315549575938]], [[126.56548324101182, 34.98315549575938], [126.57174224524047, 34.97675615942084]], [[126.57174224524047, 34.97675615942084], [126.5789747101719, 34.97569158583866]], [[126.5789747101719, 34.97569158583866], [126.58579923974192, 34.98208125798991]], [[126.58579923974192, 34.98208125798991], [126.58616749197239, 34.98949222610128]], [[126.58616749197239, 34.98949222610128], [126.59234386898031, 34.991445917860126]], [[126.59234386898031, 34.991445917860126], [126.59365732313766, 34.99815596534802]], [[126.59365732313766, 34.99815596534802], [126.59757819390578, 35.0052629940486]], [[126.59757819390578, 35.0052629940486], [126.597632602581, 35.01419572931154]], [[126.597632602581, 35.01419572931154], [126.59294356029173, 35.01591440668735]], [[126.59294356029173, 35.01591440668735], [126.59212411932542, 35.021790048423505]], [[126.59212411932542, 35.021790048423505], [126.59581523041592, 35.02677171599946]], [[126.59581523041592, 35.02677171599946], [126.5939365772178, 35.02918434777673]], [[126.5939365772178, 35.02918434777673], [126.59793121662025, 35.03710363851319]], [[126.59793121662025, 35.03710363851319], [126.59549666751387, 35.04042370581555]], [[126.59549666751387, 35.04042370581555], [126.59581692503447, 35.04316086840697]], [[126.59581692503447, 35.04316086840697], [126.59495063652774, 35.04551762897833]], [[126.59495063652774, 35.04551762897833], [126.58860378463096, 35.047072645455714]], [[126.58860378463096, 35.047072645455714], [126.58513734705095, 35.049613104605235]], [[126.58513734705095, 35.049613104605235], [126.58497092326385, 35.05407490334323]], [[126.58497092326385, 35.05407490334323], [126.58602709107862, 35.056646837851666]], [[126.58602709107862, 35.056646837851666], [126.58916541819268, 35.05826624648349]], [[126.58916541819268, 35.05826624648349], [126.59027909555758, 35.05986031979728]], [[126.59027909555758, 35.05986031979728], [126.58935453424793, 35.06118609723479]], [[126.58935453424793, 35.06118609723479], [126.5885055124952, 35.068976835645095]], [[126.5885055124952, 35.068976835645095], [126.59387466227811, 35.071443383810596]], [[126.59387466227811, 35.071443383810596], [126.5915309832294, 35.07463538647075]], [[126.5915309832294, 35.07463538647075], [126.59153972279542, 35.07903039929439]], [[126.59153972279542, 35.07903039929439], [126.59644799693947, 35.081691657401095]], [[126.59644799693947, 35.081691657401095], [126.59355704395627, 35.086555186327175]], [[126.59355704395627, 35.086555186327175], [126.5949363076263, 35.08729592356789]], [[126.5949363076263, 35.08729592356789], [126.5995358056944, 35.09347464382545]], [[126.5995358056944, 35.09347464382545], [126.59624704425893, 35.094945108774304]], [[126.59624704425893, 35.094945108774304], [126.5952348427334, 35.102026479229814]], [[126.5952348427334, 35.102026479229814], [126.59797512065772, 35.103471555432485]], [[126.59797512065772, 35.103471555432485], [126.600920526978, 35.101505781748465]], [[126.600920526978, 35.101505781748465], [126.60327127439915, 35.10099618638103]], [[126.60327127439915, 35.10099618638103], [126.6048216842431, 35.092624317515615]], [[126.6048216842431, 35.092624317515615], [126.6062489457826, 35.092084957303825]], [[126.6062489457826, 35.092084957303825], [126.60959036050026, 35.09237963221134]], [[126.60959036050026, 35.09237963221134], [126.61704547284286, 35.08972453604726]], [[126.61704547284286, 35.08972453604726], [126.62768950058921, 35.09552981644477]], [[126.62768950058921, 35.09552981644477], [126.62814846420271, 35.096960279264714]], [[126.62814846420271, 35.096960279264714], [126.64719452288837, 35.09592933372439]], [[126.64719452288837, 35.09592933372439], [126.64801146326197, 35.09722280509959]], [[126.64801146326197, 35.09722280509959], [126.64777953808127, 35.099809205683854]], [[126.64777953808127, 35.099809205683854], [126.6443628594847, 35.10591467092621]], [[126.6443628594847, 35.10591467092621], [126.65887653972223, 35.110546328685345]], [[126.8915336280587, 35.075451538746385], [126.89603719971468, 35.071390277962884]], [[126.89603719971468, 35.071390277962884], [126.89433712711916, 35.06303755452565]], [[126.89433712711916, 35.06303755452565], [126.90201586025482, 35.059399636645686]], [[126.90201586025482, 35.059399636645686], [126.90091234731017, 35.05662541314448]], [[126.90091234731017, 35.05662541314448], [126.8951486614071, 35.05031796418401]], [[126.8951486614071, 35.05031796418401], [126.89178722952599, 35.04817282643207]], [[126.89178722952599, 35.04817282643207], [126.89440975089545, 35.04135513071013]], [[126.87802545671347, 35.2588212722498], [126.87759319025459, 35.26368561213394]], [[126.87759319025459, 35.26368561213394], [126.86841431642478, 35.263689114992346]], [[126.86841431642478, 35.263689114992346], [126.86761730590983, 35.26457826902875]], [[126.86761730590983, 35.26457826902875], [126.86899465348755, 35.27643237693638]], [[126.86899465348755, 35.27643237693638], [126.87165766726977, 35.2802400326403]], [[126.87165766726977, 35.2802400326403], [126.87174426948825, 35.28162236393662]], [[126.87174426948825, 35.28162236393662], [126.86890486522155, 35.287436396256396]], [[126.86890486522155, 35.287436396256396], [126.86310694568675, 35.292944472641985]], [[126.86310694568675, 35.292944472641985], [126.85518561073403, 35.2987591422068]], [[126.85518561073403, 35.2987591422068], [126.85840162503145, 35.30464838721932]], [[126.85840162503145, 35.30464838721932], [126.85418900953955, 35.32221573575778]], [[126.85418900953955, 35.32221573575778], [126.87353453136194, 35.326657491168504]], [[126.87353453136194, 35.326657491168504], [126.88233973738724, 35.32703006809264]], [[126.88233973738724, 35.32703006809264], [126.8787169723058, 35.33800830987044]], [[126.8787169723058, 35.33800830987044], [126.87575926450398, 35.34388005245271]], [[126.87575926450398, 35.34388005245271], [126.87977724192241, 35.36057508527319]], [[126.87977724192241, 35.36057508527319], [126.88686809861547, 35.36489423872618]], [[126.88686809861547, 35.36489423872618], [126.88904844017546, 35.36705314404365]], [[126.88904844017546, 35.36705314404365], [126.90339698402083, 35.370635263987324]], [[126.90339698402083, 35.370635263987324], [126.9036140101025, 35.373783428425476]], [[126.9036140101025, 35.373783428425476], [126.90623449388995, 35.37884149674052]], [[126.90623449388995, 35.37884149674052], [126.91197759980707, 35.382234425020336]], [[126.91197759980707, 35.382234425020336], [126.91359654474103, 35.384131434402]], [[126.91359654474103, 35.384131434402], [126.91635544746673, 35.38393006472252]], [[126.91635544746673, 35.38393006472252], [126.92117576264893, 35.37969052565005]], [[126.92117576264893, 35.37969052565005], [126.92624748069981, 35.3829496069402]], [[126.92624748069981, 35.3829496069402], [126.9285154712706, 35.39374382790303]], [[126.9285154712706, 35.39374382790303], [126.93288218990538, 35.3984076172178]], [[126.93288218990538, 35.3984076172178], [126.93562589169674, 35.3994879183376]], [[126.93562589169674, 35.3994879183376], [126.94911114625894, 35.41477120032546]], [[126.94911114625894, 35.41477120032546], [126.94668747613, 35.42263260816856]], [[126.94668747613, 35.42263260816856], [126.94449133651788, 35.438909482362746]], [[126.94449133651788, 35.438909482362746], [126.94548960905466, 35.441572789837885]], [[126.94548960905466, 35.441572789837885], [126.94697906181467, 35.458337353376606]], [[127.10892508181955, 35.20142332371998], [127.10522622147764, 35.19047700415987]], [[127.10522622147764, 35.19047700415987], [127.10189746259161, 35.189830879566976]], [[127.10189746259161, 35.189830879566976], [127.09787807134909, 35.1850734554422]], [[127.09787807134909, 35.1850734554422], [127.09522701051458, 35.18494537452285]], [[127.09522701051458, 35.18494537452285], [127.09378410009393, 35.18568580672258]], [[127.09378410009393, 35.18568580672258], [127.08531964712863, 35.17895424823334]], [[127.08531964712863, 35.17895424823334], [127.08025035072308, 35.18434886119906]], [[127.08025035072308, 35.18434886119906], [127.07476672231832, 35.182909122877774]], [[127.07476672231832, 35.182909122877774], [127.06882308209426, 35.18478126033559]], [[127.06882308209426, 35.18478126033559], [127.06548329549202, 35.18483114897221]], [[127.06548329549202, 35.18483114897221], [127.06477822233542, 35.17694961875652]], [[127.06477822233542, 35.17694961875652], [127.0714560183865, 35.170267040079935]], [[127.0714560183865, 35.170267040079935], [127.06962959633155, 35.16195766086279]], [[127.06962959633155, 35.16195766086279], [127.07547051970926, 35.154782616205075]], [[127.07547051970926, 35.154782616205075], [127.07477182491202, 35.149742189526464]], [[127.07477182491202, 35.149742189526464], [127.08122152749924, 35.14214058255485]], [[127.08122152749924, 35.14214058255485], [127.08713839483033, 35.140155222354984]], [[127.08713839483033, 35.140155222354984], [127.08616083336618, 35.12211802002374]], [[127.08616083336618, 35.12211802002374], [127.08327925370081, 35.12050449233212]], [[127.08327925370081, 35.12050449233212], [127.08253878263666, 35.11911877994147]], [[127.08253878263666, 35.11911877994147], [127.07983340568765, 35.117952778312514]], [[127.07983340568765, 35.117952778312514], [127.07062078611314, 35.11796836555117]], [[127.07062078611314, 35.11796836555117], [127.0628917193522, 35.122600561459556]], [[127.0628917193522, 35.122600561459556], [127.0601625829917, 35.12566932674107]], [[127.0601625829917, 35.12566932674107], [127.05151802148875, 35.12479759554688]], [[127.05151802148875, 35.12479759554688], [127.04786348231428, 35.1303255415618]], [[127.04786348231428, 35.1303255415618], [127.04488720359231, 35.12915718342184]], [[127.04488720359231, 35.12915718342184], [127.02358180342259, 35.13437815607508]], [[127.02358180342259, 35.13437815607508], [127.01806524512058, 35.137528823744844]], [[127.01806524512058, 35.137528823744844], [127.0037843216494, 35.13917012333635]], [[126.57094485066119, 35.20154647105845], [126.56641991335903, 35.20060728312296]], [[126.56641991335903, 35.20060728312296], [126.56168302777029, 35.20139291507322]], [[126.56168302777029, 35.20139291507322], [126.56020302215089, 35.200746846458195]], [[126.56020302215089, 35.200746846458195], [126.55364538632661, 35.188948469921385]], [[126.55364538632661, 35.188948469921385], [126.54491558631389, 35.19159795204065]], [[126.54491558631389, 35.19159795204065], [126.53502876778082, 35.183547042322644]], [[126.53502876778082, 35.183547042322644], [126.52992963612691, 35.18256592612466]], [[126.52992963612691, 35.18256592612466], [126.51727365918909, 35.19169770579507]], [[126.51727365918909, 35.19169770579507], [126.51401006690391, 35.18831993279673]], [[126.51401006690391, 35.18831993279673], [126.49994927490108, 35.1820097902234]], [[126.49994927490108, 35.1820097902234], [126.497235838794, 35.18672981893749]], [[126.497235838794, 35.18672981893749], [126.49176784215469, 35.190266489687936]], [[126.49176784215469, 35.190266489687936], [126.48984005943647, 35.186016587946455]], [[126.48984005943647, 35.186016587946455], [126.48766251986743, 35.18671858446925]], [[126.48766251986743, 35.18671858446925], [126.48937107397518, 35.19247742118489]], [[126.48937107397518, 35.19247742118489], [126.48635792226754, 35.19215230914384]], [[126.48635792226754, 35.19215230914384], [126.48281983461828, 35.18915685637808]], [[126.48281983461828, 35.18915685637808], [126.47335362370916, 35.19415664425197]], [[126.47335362370916, 35.19415664425197], [126.4723221794305, 35.1922960626379]], [[126.4723221794305, 35.1922960626379], [126.46589081980031, 35.18575486265992]], [[126.46589081980031, 35.18575486265992], [126.46013759751554, 35.18827931533138]], [[126.46013759751554, 35.18827931533138], [126.4538743146576, 35.18776342225471]], [[126.4538743146576, 35.18776342225471], [126.44617666167431, 35.19054188635875]], [[126.44617666167431, 35.19054188635875], [126.44047260182576, 35.18410528371276]], [[126.44047260182576, 35.18410528371276], [126.4357149254776, 35.18178191742284]], [[126.4357149254776, 35.18178191742284], [126.41905341334623, 35.188549971636284]], [[126.41905341334623, 35.188549971636284], [126.41559594624192, 35.185195070562315]], [[126.41559594624192, 35.185195070562315], [126.3972728070301, 35.18120172393108]], [[126.3972728070301, 35.18120172393108], [126.39542624817517, 35.18024568680907]], [[126.39542624817517, 35.18024568680907], [126.39422605546834, 35.17341880664128]], [[126.39422605546834, 35.17341880664128], [126.38683890881912, 35.17042054503198]], [[126.38683890881912, 35.17042054503198], [126.37533877613802, 35.17393284528601]], [[126.37533877613802, 35.17393284528601], [126.37268162927991, 35.17016902745635]], [[126.37268162927991, 35.17016902745635], [126.3641234740017, 35.16241834183115]], [[126.3641234740017, 35.16241834183115], [126.3583936090633, 35.15852018396894]], [[126.63604050207684, 35.34505395333042], [126.64387526306069, 35.32684903994827]], [[126.64387526306069, 35.32684903994827], [126.64605347913344, 35.314153081380596]], [[126.64605347913344, 35.314153081380596], [126.6432381709448, 35.31048385992048]], [[126.6432381709448, 35.31048385992048], [126.6370701307883, 35.30847713438661]], [[126.6370701307883, 35.30847713438661], [126.62700266368007, 35.29754006657657]], [[126.62700266368007, 35.29754006657657], [126.62495790437896, 35.29676940081735]], [[126.62495790437896, 35.29676940081735], [126.6230689143514, 35.29708253224914]], [[126.6230689143514, 35.29708253224914], [126.61893845754543, 35.304624990164356]], [[126.61893845754543, 35.304624990164356], [126.60920173976115, 35.30491939129487]], [[126.60920173976115, 35.30491939129487], [126.60745831604086, 35.3043919015412]], [[126.60745831604086, 35.3043919015412], [126.60388704839872, 35.299181896621185]], [[126.60388704839872, 35.299181896621185], [126.60435502378535, 35.289597555074984]], [[126.60435502378535, 35.289597555074984], [126.60331037624641, 35.28779965480469]], [[126.60331037624641, 35.28779965480469], [126.60747060015241, 35.27692743808279]], [[126.60747060015241, 35.27692743808279], [126.60708701235849, 35.27409479676516]], [[126.60708701235849, 35.27409479676516], [126.60841211081258, 35.26149740680306]], [[126.60841211081258, 35.26149740680306], [126.59813942889546, 35.25750803850129]], [[126.59813942889546, 35.25750803850129], [126.59147424490234, 35.24046841342516]], [[126.59147424490234, 35.24046841342516], [126.5815762410157, 35.235556328008265]], [[126.5815762410157, 35.235556328008265], [126.58132575798149, 35.22795111915078]], [[126.58132575798149, 35.22795111915078], [126.58239025225083, 35.22182424319693]], [[126.58239025225083, 35.22182424319693], [126.5806441901679, 35.217783586519445]], [[126.5806441901679, 35.217783586519445], [126.5831199564916, 35.21360602035317]], [[126.5831199564916, 35.21360602035317], [126.58462747886199, 35.20627514164989]], [[126.58462747886199, 35.20627514164989], [126.57990782474633, 35.19770039791354]], [[126.57990782474633, 35.19770039791354], [126.57094485066119, 35.20154647105845]], [[126.64865695593504, 35.19700209008614], [126.6486219764139, 35.19694839493042], [126.64275400194076, 35.20153521723647]], [[126.64275400194076, 35.20153521723647], [126.64396396533354, 35.20372486338805]], [[126.64396396533354, 35.20372486338805], [126.64243364768156, 35.20735049902178]], [[126.64243364768156, 35.20735049902178], [126.63768514613135, 35.20846179838216]], [[126.63768514613135, 35.20846179838216], [126.63873915184483, 35.21277348132844]], [[126.63873915184483, 35.21277348132844], [126.62921499845953, 35.2111265593252]], [[126.62921499845953, 35.2111265593252], [126.63249278694138, 35.21450597426909]], [[126.63249278694138, 35.21450597426909], [126.62824620863766, 35.21652913525755]], [[126.62824620863766, 35.21652913525755], [126.62855999847795, 35.22073630547667]], [[126.62855999847795, 35.22073630547667], [126.62245107011658, 35.21928473409323]], [[126.62245107011658, 35.21928473409323], [126.62094140063678, 35.2213661692741]], [[126.62094140063678, 35.2213661692741], [126.61443357879583, 35.223187867568846]], [[126.61443357879583, 35.223187867568846], [126.6143754806195, 35.224136838135024]], [[126.6143754806195, 35.224136838135024], [126.61698135942126, 35.226683647061364]], [[126.61698135942126, 35.226683647061364], [126.60844618367899, 35.23170483834659]], [[126.60844618367899, 35.23170483834659], [126.60898387491783, 35.23323009018346]], [[126.60898387491783, 35.23323009018346], [126.60707684857825, 35.23542175670693]], [[126.60707684857825, 35.23542175670693], [126.59436596552871, 35.2384445653158]], [[126.59436596552871, 35.2384445653158], [126.59147424490234, 35.24046841342516]], [[126.64275400194076, 35.20153521723647], [126.64865695593208, 35.19700209010073]], [[127.18168801415058, 35.21698564550861], [127.18193314079416, 35.21715787254638], [127.19715390322828, 35.20966605469298]]]}}]}